NOAA19
1 33591U 09005A   23156.14173894  .00000208  00000-0  13708-3 0  9991
2 33591  99.1001 201.8759 0012774 277.1213  82.8506 14.12764011738249
137100
42000